LEMUR-2-AMANDA-SVANTE   
1 48269U 21034B   26068.77637527  .00030872  00000+0  11134-2 0  9996
2 48269  97.5829 144.8625 0002703 205.4721 154.6385 15.28469003265849
STARLINK-31959          
1 59925U 24106D   26068.41087725 -.00001364  00000+0 -40088-4 0  9998
2 59925  43.0019 330.2606 0000556  12.7050 347.3816 15.27564146100521
